[{"OBJECT_NAME":"STARLINK-30380","OBJECT_ID":"2023-134K","EPOCH":"2026-03-09T15:55:33.829536","MEAN_MOTION":15.27567352,"ECCENTRICITY":0.00017682,"INCLINATION":43.0014,"RA_OF_ASC_NODE":194.5511,"ARG_OF_PERICENTER":269.1236,"MEAN_ANOMALY":90.9413,"EPHEMERIS_TYPE":0,"CLASSIFICATION_TYPE":"U","NORAD_CAT_ID":57780,"ELEMENT_SET_NO":999,"REV_AT_EPOCH":13950,"BSTAR":-6.6602077e-5,"MEAN_MOTION_DOT":-2.094e-5,"MEAN_MOTION_DDOT":0},{"OBJECT_NAME":"FLOCK 4G-15","OBJECT_ID":"2025-009BX","EPOCH":"2026-03-09T17:13:37.807680","MEAN_MOTION":15.27266411,"ECCENTRICITY":0.00036988,"INCLINATION":97.4054,"RA_OF_ASC_NODE":151.1927,"ARG_OF_PERICENTER":316.8208,"MEAN_ANOMALY":43.274,"EPHEMERIS_TYPE":0,"CLASSIFICATION_TYPE":"U","NORAD_CAT_ID":62678,"ELEMENT_SET_NO":999,"REV_AT_EPOCH":12135,"BSTAR":0.00047574812,"MEAN_MOTION_DOT":0.00012647,"MEAN_MOTION_DDOT":0}]
